GLOBALSTAR M023         
1 25621U 99004A   24119.57132422 -.00000042  00000+0  34280-3 0  9997
2 25621  52.0103 235.9089 0009676 290.4438  82.3987 12.62452089163458
GLOBALSTAR M036         
1 25623U 99004C   24119.68566980 -.00000103  00000+0 -30163-3 0  9996
2 25623  51.9963 252.8240 0010727 337.1931 125.7605 11.86566389129753
GLOBALSTAR M038         
1 25624U 99004D   24119.95935503 -.00000057  00000+0  31638-3 0  9993
2 25624  51.9958 184.4708 0001679 260.1588 271.6033 12.32498191151293
GLOBALSTAR M046         
1 25651U 99012C   24119.77287549 -.00000156  00000+0 -74529-3 0  9999
2 25651  52.0052 302.7128 0002932 134.2048 239.0754 12.09388289133520
GLOBALSTAR M037         
1 25652U 99012D   24119.92798491 -.00000032  00000+0  39859-3 0  9999
2 25652  52.0031   5.5982 0002111  11.1858   3.0494 12.62403371158958
